[{"OBJECT_NAME":"ORBCOMM FM110","OBJECT_ID":"2015-081D","EPOCH":"2026-03-09T10:51:08.828064","MEAN_MOTION":14.58735323,"ECCENTRICITY":0.00033965,"INCLINATION":47.0012,"RA_OF_ASC_NODE":112.9678,"ARG_OF_PERICENTER":317.5539,"MEAN_ANOMALY":42.5084,"EPHEMERIS_TYPE":0,"CLASSIFICATION_TYPE":"U","NORAD_CAT_ID":41182,"ELEMENT_SET_NO":999,"REV_AT_EPOCH":54306,"BSTAR":0.00025090546,"MEAN_MOTION_DOT":1.012e-5,"MEAN_MOTION_DDOT":0},{"OBJECT_NAME":"COSMOS 2251 DEB","OBJECT_ID":"1993-036BRW","EPOCH":"2026-03-07T16:51:45.745056","MEAN_MOTION":14.57024278,"ECCENTRICITY":0.00450236,"INCLINATION":74.0234,"RA_OF_ASC_NODE":322.7319,"ARG_OF_PERICENTER":60.7714,"MEAN_ANOMALY":299.794,"EPHEMERIS_TYPE":0,"CLASSIFICATION_TYPE":"U","NORAD_CAT_ID":38064,"ELEMENT_SET_NO":999,"REV_AT_EPOCH":73102,"BSTAR":0.00096403283,"MEAN_MOTION_DOT":4.37e-5,"MEAN_MOTION_DDOT":0}]
